[{"OBJECT_NAME":"STARLINK-31684","OBJECT_ID":"2024-071J","EPOCH":"2026-03-08T19:31:52.154976","MEAN_MOTION":15.27581574,"ECCENTRICITY":6.373e-5,"INCLINATION":42.998,"RA_OF_ASC_NODE":352.3031,"ARG_OF_PERICENTER":257.0512,"MEAN_ANOMALY":103.0268,"EPHEMERIS_TYPE":0,"CLASSIFICATION_TYPE":"U","NORAD_CAT_ID":59492,"ELEMENT_SET_NO":999,"REV_AT_EPOCH":10798,"BSTAR":-0.00013350334,"MEAN_MOTION_DOT":-3.934e-5,"MEAN_MOTION_DDOT":0},{"OBJECT_NAME":"OV1-9","OBJECT_ID":"1966-111A","EPOCH":"2026-03-09T00:15:54.647424","MEAN_MOTION":10.39800663,"ECCENTRICITY":0.22726318,"INCLINATION":99.101,"RA_OF_ASC_NODE":280.6949,"ARG_OF_PERICENTER":170.5316,"MEAN_ANOMALY":194.7407,"EPHEMERIS_TYPE":0,"CLASSIFICATION_TYPE":"U","NORAD_CAT_ID":2610,"ELEMENT_SET_NO":999,"REV_AT_EPOCH":22262,"BSTAR":0.0003053363,"MEAN_MOTION_DOT":7.59e-6,"MEAN_MOTION_DDOT":0}]
